[{"OBJECT_NAME":"QIANFAN-23","OBJECT_ID":"2024-185E","EPOCH":"2026-03-09T22:52:44.891904","MEAN_MOTION":14.16398048,"ECCENTRICITY":0.00092256,"INCLINATION":88.9755,"RA_OF_ASC_NODE":67.6947,"ARG_OF_PERICENTER":47.6437,"MEAN_ANOMALY":312.5531,"EPHEMERIS_TYPE":0,"CLASSIFICATION_TYPE":"U","NORAD_CAT_ID":61556,"ELEMENT_SET_NO":999,"REV_AT_EPOCH":8209,"BSTAR":0.00033141265,"MEAN_MOTION_DOT":6.72e-6,"MEAN_MOTION_DDOT":0},{"OBJECT_NAME":"GEOS 3","OBJECT_ID":"1975-027A","EPOCH":"2026-03-09T16:28:33.104928","MEAN_MOTION":14.19165666,"ECCENTRICITY":0.00178327,"INCLINATION":114.9877,"RA_OF_ASC_NODE":7.463,"ARG_OF_PERICENTER":307.1574,"MEAN_ANOMALY":52.7876,"EPHEMERIS_TYPE":0,"CLASSIFICATION_TYPE":"U","NORAD_CAT_ID":7734,"ELEMENT_SET_NO":999,"REV_AT_EPOCH":63515,"BSTAR":6.5086005e-5,"MEAN_MOTION_DOT":-3.9e-7,"MEAN_MOTION_DDOT":0}]
